NORAD_CAT_ID,OBJECT_NAME,OBJECT_TYPE,EPOCH,MEAN_MOTION,ECCENTRICITY,INCLINATION,RA_OF_ASC_NODE,ARG_OF_PERICENTER,MEAN_ANOMALY,BSTAR,MEAN_MOTION_DOT,MEAN_MOTION_DDOT,TLE_LINE0,TLE_LINE1,TLE_LINE2,SEMIMAJOR_AXIS,PERIOD,APOGEE,PERIGEE,DECAYED
51976.0,STARLINK-3663,PAYLOAD,2022-09-08 06:00:00,15.08847507,0.0001495,53.2177,18.2682,62.5539,287.5691,0.00081672,0.00012737,0.0,0 STARLINK-3663,1 51976U 22025W   22251.25001157  .00012737  00000-0  81672-3 0  9999,2 51976  53.2177  18.2682 0001495  62.5539 287.5691 15.08847507 29162,6917.857,95.437,540.757,538.688,0.0
51976.0,STARLINK-3663,PAYLOAD,2022-09-08 14:00:01,15.08848052,0.0001648,53.2179,16.7733,59.0978,302.6324,-0.00086049,-0.0001395999999999,0.0,0 STARLINK-3663,1 51976U 22025W   22251.58334491 -.00013960  00000-0 -86049-3 0  9999,2 51976  53.2179  16.7733 0001648  59.0978 302.6324 15.08848052  1306,6917.856,95.437,540.861,538.581,0.0
51976.0,STARLINK-3663,PAYLOAD,2022-09-08 22:00:00,15.08859964,0.0001609,53.2175,15.2769,54.4554,318.8732,-0.0027428,-0.00043699,0.0,0 STARLINK-3663,1 51976U 22025W   22251.91667824 -.00043699  00000-0 -27428-2 0  9992,2 51976  53.2175  15.2769 0001609  54.4554 318.8732 15.08859964  1307,6917.819,95.436,540.797,538.571,0.0
51976.0,STARLINK-3663,PAYLOAD,2022-09-09 00:00:02,15.08853628,0.0001559,53.2177,14.9023,57.402,48.8918,-0.0026271,-0.00041871,0.0,0 STARLINK-3663,1 51976U 22025W   22252.00002315 -.00041871  00000-0 -26271-2 0  9996,2 51976  53.2177  14.9023 0001559  57.4020  48.8918 15.08853628 29287,6917.839,95.437,540.7819999999998,538.625,0.0
51976.0,STARLINK-3663,PAYLOAD,2022-09-09 14:00:01,15.08860187,0.0001535,53.2177,12.2845,56.2317,340.2827,-0.0026026,-0.00041493,0.0,0 STARLINK-3663,1 51976U 22025W   22252.58334491 -.00041493  00000-0 -26026-2 0  9990,2 51976  53.2177  12.2845 0001535  56.2317 340.2827 15.08860187  1309,6917.819,95.436,540.746,538.622,0.0
51976.0,STARLINK-3663,PAYLOAD,2022-09-09 22:00:00,15.08837559,0.0001486,53.2174,10.7882,51.269,356.8473,-0.0010129,-0.00016371,0.0,0 STARLINK-3663,1 51976U 22025W   22252.91667824 -.00016371  00000-0 -10129-2 0  9990,2 51976  53.2174  10.7882 0001486  51.2690 356.8473 15.08837559  1301,6917.888000000001,95.438,540.781,538.725,0.0
51976.0,STARLINK-3663,PAYLOAD,2022-09-10 06:00:02,15.08817373,0.0001337,53.2174,9.2902,58.9437,0.8331,0.0033584,0.00053534,0.0,0 STARLINK-3663,1 51976U 22025W   22253.25002315  .00053534  00000-0  33584-2 0  9996,2 51976  53.2174   9.2902 0001337  58.9437   0.8331 15.08817373 29463,6917.95,95.439,540.739,538.89,0.0
51976.0,STARLINK-3663,PAYLOAD,2022-09-10 14:00:01,15.0885828,0.0001469,53.2174,7.7959,51.2095,20.1048,-0.0030588,-0.00048664,0.0,0 STARLINK-3663,1 51976U 22025W   22253.58334491 -.00048664  00000-0 -30588-2 0  9996,2 51976  53.2174   7.7959 0001469  51.2095  20.1048 15.08858280  1305,6917.825,95.436,540.706,538.673,0.0
51976.0,STARLINK-3663,PAYLOAD,2022-09-10 22:00:00,15.08847869,0.0001453,53.2172,6.2991,48.355,34.5282,-0.0040661,-0.00064435,0.0,0 STARLINK-3663,1 51976U 22025W   22253.91667824 -.00064435  00000-0 -40661-2 0  9999,2 51976  53.2172   6.2991 0001453  48.3550  34.5282 15.08847869 29567,6917.856,95.437,540.727,538.716,0.0
51976.0,STARLINK-3663,PAYLOAD,2022-09-11 06:00:00,15.08794468,0.0001415,53.2173,4.8015,57.9627,36.517,0.0031414999999999,0.00050001,0.0,0 STARLINK-3663,1 51976U 22025W   22254.25001157  .00050001  00000-0  31415-2 0  9997,2 51976  53.2173   4.8015 0001415  57.9627  36.5170 15.08794468 29629,6918.02,95.44,540.863,538.906,0.0
51976.0,STARLINK-3663,PAYLOAD,2022-09-11 14:00:01,15.08838026,0.0001411,53.2173,3.2895,42.0027,64.0119,-0.00015315,-2.724e-05,0.0,0 STARLINK-3663,1 51976U 22025W   22254.58334491 -.00002724  00000-0 -15315-3 0  9996,2 51976  53.2173   3.2895 0001411  42.0027  64.0119 15.08838026 29676,6917.886,95.438,540.7280000000002,538.775,0.0
51976.0,STARLINK-3663,PAYLOAD,2022-09-11 22:00:00,15.08837011,0.0001367,53.2173,1.7926,40.4392,77.1684,-2.133e-05,-6.27e-06,0.0,0 STARLINK-3663,1 51976U 22025W   22254.91667824 -.00000627  00000-0 -21330-4 0  9997,2 51976  53.2173   1.7926 0001367  40.4392  77.1684 15.08837011  1306,6917.89,95.438,540.7,538.809,0.0
51976.0,STARLINK-3663,PAYLOAD,2022-09-12 06:00:00,15.0883982,0.0001559,53.2175,0.3126,58.1756,71.0786,0.00029886,4.472e-05,0.0,0 STARLINK-3663,1 51976U 22025W   22255.25001157  .00004472  00000-0  29886-3 0  9999,2 51976  53.2175   0.3126 0001559  58.1756  71.0786 15.08839820 29775,6917.880999999999,95.438,540.8240000000002,538.6669999999998,0.0
51976.0,STARLINK-3663,PAYLOAD,2022-09-12 14:00:01,15.08830707,0.0001759,53.2175,358.8181,52.6975,88.164,0.00023443,3.444e-05,0.0,0 STARLINK-3663,1 51976U 22025W   22255.58334491  .00003444  00000-0  23443-3 0  9996,2 51976  53.2175 358.8181 0001759  52.6975  88.1640 15.08830707  1303,6917.909000000002,95.438,540.991,538.557,0.0
51976.0,STARLINK-3663,PAYLOAD,2022-09-12 22:00:00,15.08857418,0.0001683,53.2176,357.3212,50.0866,102.3608,-0.0030526,-0.00048566,0.0,0 STARLINK-3663,1 51976U 22025W   22255.91667824 -.00048566  00000-0 -30526-2 0  9997,2 51976  53.2176 357.3212 0001683  50.0866 102.3608 15.08857418  1301,6917.8269999999975,95.436,540.856,538.528,0.0
51976.0,STARLINK-3663,PAYLOAD,2022-09-13 08:00:01,15.08857047,0.0001568,53.2179,355.4501,55.1018,201.8281,-0.0017504999999999,-0.00028052,0.0,0 STARLINK-3663,1 51976U 22025W   22256.33334491 -.00028052  00000-0 -17505-2 0  9995,2 51976  53.2179 355.4501 0001568  55.1018 201.8281 15.08857047 29930,6917.828,95.436,540.778,538.609,0.0
51976.0,STARLINK-3663,PAYLOAD,2022-09-13 14:00:01,15.08826779,0.0001714,53.2178,354.3292,47.6951,127.9452,-0.00021455,-3.7e-05,0.0,0 STARLINK-3663,1 51976U 22025W   22256.58334491 -.00003700  00000-0 -21455-3 0  9995,2 51976  53.2178 354.3292 0001714  47.6951 127.9452 15.08826779  1306,6917.920999999999,95.438,540.972,538.6,0.0
51976.0,STARLINK-3663,PAYLOAD,2022-09-13 22:00:00,15.08847339,0.0001678,53.2178,352.8321,47.9823,139.224,-0.0041148999999999,-0.00065198,0.0,0 STARLINK-3663,1 51976U 22025W   22256.91667824 -.00065198  00000-0 -41149-2 0  9991,2 51976  53.2178 352.8321 0001678  47.9823 139.2240 15.08847339  1308,6917.858,95.437,540.884,538.562,0.0
51976.0,STARLINK-3663,PAYLOAD,2022-09-14 14:00:01,15.08836777,0.0001706,53.2174,349.8222,56.8308,153.5144,-5.1253e-07,-2.96e-06,0.0,0 STARLINK-3663,1 51976U 22025W   22257.58334491 -.00000296  00000-0 -51253-6 0  9995,2 51976  53.2174 349.8222 0001706  56.8308 153.5144 15.08836777 30127,6917.89,95.438,540.935,538.575,0.0
51976.0,STARLINK-3663,PAYLOAD,2022-09-14 22:00:00,15.08870835,0.000169,53.2178,348.343,49.1466,172.8287,-0.0038171999999999,-0.0006058,0.0,0 STARLINK-3663,1 51976U 22025W   22257.91667824 -.00060580  00000-0 -38172-2 0  9994,2 51976  53.2178 348.3430 0001690  49.1466 172.8287 15.08870835 30178,6917.786,95.436,540.82,538.482,0.0
51976.0,STARLINK-3663,PAYLOAD,2022-09-15 14:00:01,15.08818252,0.0001710999999999,53.2179,345.3513,45.3394,199.8098,0.0010465,0.00016396,0.0,0 STARLINK-3663,1 51976U 22025W   22258.58334491  .00016396  00000-0  10465-2 0  9998,2 51976  53.2179 345.3513 0001711  45.3394 199.8098 15.08818252  1307,6917.946999999999,95.439,540.996,538.628,0.0
51976.0,STARLINK-3663,PAYLOAD,2022-09-15 16:00:00,15.08802858,0.0001721999999999,53.2178,344.9773,44.7888,293.259,0.0035448,0.00056523,0.0,0 STARLINK-3663,1 51976U 22025W   22258.66667824  .00056523  00000-0  35448-2 0  9990,2 51976  53.2178 344.9773 0001722  44.7888 293.2590 15.08802858  1303,6917.994000000002,95.44,541.05,538.668,0.0
51976.0,STARLINK-3663,PAYLOAD,2022-09-15 22:27:24,15.08835573,0.0001594,53.2191,343.7683,56.3298,303.7846,2.4931e-05,1.09e-06,0.0,0 STARLINK-3663,1 51976U 22025W   22258.93570020  .00000109  00000-0  24931-4 0  9997,2 51976  53.2191 343.7683 0001594  56.3298 303.7846 15.08835573 30321,6917.894,95.438,540.862,538.656,0.0
51976.0,STARLINK-3663,PAYLOAD,2022-09-16 12:45:53,15.08834203,0.0001594,53.219,341.0922,55.8397,304.2746,4.9276e-05,4.96e-06,0.0,0 STARLINK-3663,1 51976U 22025W   22259.53186403  .00000496  00000-0  49276-4 0  9990,2 51976  53.2190 341.0922 0001594  55.8397 304.2746 15.08834203 29312,6917.898,95.438,540.866,538.66,0.0
51976.0,STARLINK-3663,PAYLOAD,2022-09-16 14:21:15,15.08838954,0.0001599,53.2194,340.7952,57.5146,302.6001,8.7854e-05,1.11e-05,0.0,0 STARLINK-3663,1 51976U 22025W   22259.59810000  .00001110  00000-0  87854-4 0  9991,2 51976  53.2194 340.7952 0001599  57.5146 302.6001 15.08838954 29325,6917.884,95.438,540.855,538.6419999999998,0.0
51976.0,STARLINK-3663,PAYLOAD,2022-09-17 06:15:07,15.08836403,0.0001615,53.2196,337.8216,54.9709,305.1435,4.0476e-05,3.56e-06,0.0,0 STARLINK-3663,1 51976U 22025W   22260.26050389  .00000356  00000-0  40476-4 0  9993,2 51976  53.2196 337.8216 0001615  54.9709 305.1435 15.08836403 30522,6917.891,95.438,540.874,538.639,0.0
51976.0,STARLINK-3663,PAYLOAD,2022-09-17 12:36:39,15.08840593,0.000168,53.2194,336.6322,51.6744,308.4399,6.7124e-05,7.8e-06,0.0,0 STARLINK-3663,1 51976U 22025W   22260.52546123  .00000780  00000-0  67124-4 0  9998,2 51976  53.2194 336.6322 0001680  51.6744 308.4399 15.08840593 29461,6917.879,95.438,540.906,538.581,0.0
51976.0,STARLINK-3663,PAYLOAD,2022-09-18 10:52:04,15.0884009,0.0001756,53.2194,332.4689,57.4697,302.6465,7.947899999999999e-06,-1.62e-06,0.0,0 STARLINK-3663,1 51976U 22025W   22261.45282593 -.00000162  00000-0  79479-5 0  9991,2 51976  53.2194 332.4689 0001756  57.4697 302.6465 15.08840090 30707,6917.88,95.438,540.96,538.53,0.0
51976.0,STARLINK-3663,PAYLOAD,2022-09-18 12:27:27,15.0884176,0.0001725,53.2188,332.1715,51.6243,308.4904,2.4541e-05,1.03e-06,0.0,0 STARLINK-3663,1 51976U 22025W   22261.51906432  .00000103  00000-0  24541-4 0  9996,2 51976  53.2188 332.1715 0001725  51.6243 308.4904 15.08841760 29611,6917.875,95.437,540.933,538.547,0.0
